{"type": "FeatureCollection", "features": [ {"type": "Feature", "properties": {"norad_id": 28649, "name": "IRS-P5 (CARTOSAT-1)", "group": "resource", "lat": -24.70107695672073, "lon": -157.72357264539744, "alt_km": 602.418845115697, "timestamp": "2025-12-25T22:42:16.652884+00:00", "meta": {"OBJECT_NAME": "IRS-P5 (CARTOSAT-1)", "OBJECT_ID": "2005-017A", "EPOCH": "2025-12-25T15:20:36.578400", "MEAN_MOTION": 14.90446598, "ECCENTRICITY": 4.86e-05, "INCLINATION": 97.5483, "RA_OF_ASC_NODE": 25.4801, "ARG_OF_PERICENTER": 66.4428, "MEAN_ANOMALY": 293.6842, "EPHEMERIS_TYPE": 0, "CLASSIFICATION_TYPE": "U", "NORAD_CAT_ID": 28649, "ELEMENT_SET_NO": 999, "REV_AT_EPOCH": 11796, "BSTAR": 0.00017532, "MEAN_MOTION_DOT": 1.657e-05, "MEAN_MOTION_DDOT": 0}, "tle": {"line1": "1 28649U 05017A   25359.63931225  .00001657  00000+0  17532-3 0  9996", "line2": "2 28649  97.5483  25.4801 0000486  66.4428 293.6842 14.90446598117963"}}, "geometry": {"type": "Point", "coordinates": [-157.72357264539744, -24.70107695672073]}}, {"type": "Feature", "properties": {"norad_id": 28893, "name": "SINAH 1", "group": "resource", "lat": 22.396710490021654, "lon": 125.1066633663564, "alt_km": 677.2943543691918, "timestamp": "2025-12-25T22:42:16.652895+00:00", "meta": {"OBJECT_NAME": "SINAH 1", "OBJECT_ID": "2005-043D", "EPOCH": "2025-12-25T17:40:49.740384", "MEAN_MOTION": 14.63975877, "ECCENTRICITY": 0.001573, "INCLINATION": 98.261, "RA_OF_ASC_NODE": 128.3293, "ARG_OF_PERICENTER": 99.1228, "MEAN_ANOMALY": 261.1754, "EPHEMERIS_TYPE": 0, "CLASSIFICATION_TYPE": "U", "NORAD_CAT_ID": 28893, "ELEMENT_SET_NO": 999, "REV_AT_EPOCH": 7514, "BSTAR": 0.00010123, "MEAN_MOTION_DOT": 4.82e-06, "MEAN_MOTION_DDOT": 0}, "tle": {"line1": "1 28893U 05043D   25359.73668681  .00000482  00000+0  10123-3 0  9994", "line2": "2 28893  98.2610 128.3293 0015730  99.1228 261.1754 14.63975877 75143"}}, "geometry": {"type": "Point", "coordinates": [125.1066633663564, 22.396710490021654]}}, {"type": "Feature", "properties": {"norad_id": 29079, "name": "EROS B", "group": "resource", "lat": 41.63011474432973, "lon": 110.60593654233688, "alt_km": 348.1069968812071, "timestamp": "2025-12-25T22:42:16.652906+00:00", "meta": {"OBJECT_NAME": "EROS B", "OBJECT_ID": "2006-014A", "EPOCH": "2025-12-25T17:56:42.227808", "MEAN_MOTION": 15.7258763, "ECCENTRICITY": 0.0004546, "INCLINATION": 97.3449, "RA_OF_ASC_NODE": 116.9802, "ARG_OF_PERICENTER": 311.7791, "MEAN_ANOMALY": 48.3084, "EPHEMERIS_TYPE": 0, "CLASSIFICATION_TYPE": "U", "NORAD_CAT_ID": 29079, "ELEMENT_SET_NO": 999, "REV_AT_EPOCH": 9284, "BSTAR": 0.0014798, "MEAN_MOTION_DOT": 0.00202222, "MEAN_MOTION_DDOT": 0}, "tle": {"line1": "1 29079U 06014A   25359.74771097  .00202222  00000+0  14798-2 0  9994", "line2": "2 29079  97.3449 116.9802 0004546 311.7791  48.3084 15.72587630 92844"}}, "geometry": {"type": "Point", "coordinates": [110.60593654233688, 41.63011474432973]}}, {"type": "Feature", "properties": {"norad_id": 29228, "name": "RESURS-DK 1", "group": "resource", "lat": 67.6485004446387, "lon": -175.0393343875417, "alt_km": 526.1774775518516, "timestamp": "2025-12-25T22:42:16.652916+00:00", "meta": {"OBJECT_NAME": "RESURS-DK 1", "OBJECT_ID": "2006-021A", "EPOCH": "2025-12-25T12:44:18.731040", "MEAN_MOTION": 15.12230969, "ECCENTRICITY": 0.0006922, "INCLINATION": 69.9336, "RA_OF_ASC_NODE": 68.7803, "ARG_OF_PERICENTER": 247.3291, "MEAN_ANOMALY": 112.7143, "EPHEMERIS_TYPE": 0, "CLASSIFICATION_TYPE": "U", "NORAD_CAT_ID": 29228, "ELEMENT_SET_NO": 999, "REV_AT_EPOCH": 7631, "BSTAR": 0.00018237, "MEAN_MOTION_DOT": 3.053e-05, "MEAN_MOTION_DDOT": 0}, "tle": {"line1": "1 29228U 06021A   25359.53077235  .00003053  00000+0  18237-3 0  9992", "line2": "2 29228  69.9336  68.7803 0006922 247.3291 112.7143 15.12230969 76314"}}, "geometry": {"type": "Point", "coordinates": [-175.0393343875417, 67.6485004446387]}}, {"type": "Feature", "properties": {"norad_id": 29268, "name": "ARIRANG-2 (KOMPSAT-2)", "group": "resource", "lat": -46.32572779748147, "lon": -163.94257533196816, "alt_km": 679.4401058300118, "timestamp": "2025-12-25T22:42:16.652927+00:00", "meta": {"OBJECT_NAME": "ARIRANG-2 (KOMPSAT-2)", "OBJECT_ID": "2006-031A", "EPOCH": "2025-12-25T18:34:58.985184", "MEAN_MOTION": 14.64505004, "ECCENTRICITY": 0.001312, "INCLINATION": 97.8258, "RA_OF_ASC_NODE": 187.6119, "ARG_OF_PERICENTER": 264.15, "MEAN_ANOMALY": 224.0653, "EPHEMERIS_TYPE": 0, "CLASSIFICATION_TYPE": "U", "NORAD_CAT_ID": 29268, "ELEMENT_SET_NO": 999, "REV_AT_EPOCH": 3609, "BSTAR": 9.4542e-05, "MEAN_MOTION_DOT": 4.56e-06, "MEAN_MOTION_DDOT": 0}, "tle": {"line1": "1 29268U 06031A   25359.77429381  .00000456  00000+0  94542-4 0  9994", "line2": "2 29268  97.8258 187.6119 0013120 264.1500 224.0653 14.64505004 36095"}}, "geometry": {"type": "Point", "coordinates": [-163.94257533196816, -46.32572779748147]}}, {"type": "Feature", "properties": {"norad_id": 29709, "name": "LAPAN-TUBSAT", "group": "resource", "lat": 6.149235848305461, "lon": 171.2563940964272, "alt_km": 620.5356268781588, "timestamp": "2025-12-25T22:42:16.652938+00:00", "meta": {"OBJECT_NAME": "LAPAN-TUBSAT", "OBJECT_ID": "2007-001A", "EPOCH": "2025-12-25T18:41:36.382848", "MEAN_MOTION": 14.85687307, "ECCENTRICITY": 0.0013146, "INCLINATION": 98.1266, "RA_OF_ASC_NODE": 350.2037, "ARG_OF_PERICENTER": 35.3004, "MEAN_ANOMALY": 324.9079, "EPHEMERIS_TYPE": 0, "CLASSIFICATION_TYPE": "U", "NORAD_CAT_ID": 29709, "ELEMENT_SET_NO": 999, "REV_AT_EPOCH": 2540, "BSTAR": 2.3357e-05, "MEAN_MOTION_DOT": 1.45e-06, "MEAN_MOTION_DDOT": 0}, "tle": {"line1": "1 29709U 07001A   25359.77889332  .00000145  00000+0  23357-4 0  9999", "line2": "2 29709  98.1266 350.2037 0013146  35.3004 324.9079 14.85687307 25405"}}, "geometry": {"type": "Point", "coordinates": [171.2563940964272, 6.149235848305461]}}, {"type": "Feature", "properties": {"norad_id": 31113, "name": "HAIYANG-1B", "group": "resource", "lat": -18.561343472453842, "lon": -13.499655144692785, "alt_km": 784.2946911230811, "timestamp": "2025-12-25T22:42:16.652949+00:00", "meta": {"OBJECT_NAME": "HAIYANG-1B", "OBJECT_ID": "2007-010A", "EPOCH": "2025-12-25T16:04:45.465024", "MEAN_MOTION": 14.30969189, "ECCENTRICITY": 0.0013567, "INCLINATION": 98.333, "RA_OF_ASC_NODE": 343.4147, "ARG_OF_PERICENTER": 0.9131, "MEAN_ANOMALY": 359.2075, "EPHEMERIS_TYPE": 0, "CLASSIFICATION_TYPE": "U", "NORAD_CAT_ID": 31113, "ELEMENT_SET_NO": 999, "REV_AT_EPOCH": 97581, "BSTAR": 6.3277e-05, "MEAN_MOTION_DOT": 1.25e-06, "MEAN_MOTION_DDOT": 0}, "tle": {"line1": "1 31113U 07010A   25359.66997066  .00000125  00000+0  63277-4 0  9996", "line2": "2 31113  98.3330 343.4147 0013567   0.9131 359.2075 14.30969189975810"}}, "geometry": {"type": "Point", "coordinates": [-13.499655144692785, -18.561343472453842]}}, {"type": "Feature", "properties": {"norad_id": 31598, "name": "COSMO-SKYMED 1", "group": "resource", "lat": -69.04522087379503, "lon": -15.780657802316579, "alt_km": 587.8134573826728, "timestamp": "2025-12-25T22:42:16.652959+00:00", "meta": {"OBJECT_NAME": "COSMO-SKYMED 1", "OBJECT_ID": "2007-023A", "EPOCH": "2025-12-25T16:46:19.064064", "MEAN_MOTION": 14.9585976, "ECCENTRICITY": 0.0001207, "INCLINATION": 97.8839, "RA_OF_ASC_NODE": 185.1838, "ARG_OF_PERICENTER": 77.2861, "MEAN_ANOMALY": 282.8495, "EPHEMERIS_TYPE": 0, "CLASSIFICATION_TYPE": "U", "NORAD_CAT_ID": 31598, "ELEMENT_SET_NO": 999, "REV_AT_EPOCH": 384, "BSTAR": 0.0002959, "MEAN_MOTION_DOT": 3.248e-05, "MEAN_MOTION_DDOT": 0}, "tle": {"line1": "1 31598U 07023A   25359.69883176  .00003248  00000+0  29590-3 0  9994", "line2": "2 31598  97.8839 185.1838 0001207  77.2861 282.8495 14.95859760  3844"}}, "geometry": {"type": "Point", "coordinates": [-15.780657802316579, -69.04522087379503]}}, {"type": "Feature", "properties": {"norad_id": 31698, "name": "TERRASAR-X", "group": "resource", "lat": -65.24487202998672, "lon": 21.607319927807726, "alt_km": 516.6828828273046, "timestamp": "2025-12-25T22:42:16.652970+00:00", "meta": {"OBJECT_NAME": "TERRASAR-X", "OBJECT_ID": "2007-026A", "EPOCH": "2025-12-25T13:30:40.378176", "MEAN_MOTION": 15.19155603, "ECCENTRICITY": 0.0001851, "INCLINATION": 97.4447, "RA_OF_ASC_NODE": 4.756, "ARG_OF_PERICENTER": 79.9289, "MEAN_ANOMALY": 280.2154, "EPHEMERIS_TYPE": 0, "CLASSIFICATION_TYPE": "U", "NORAD_CAT_ID": 31698, "ELEMENT_SET_NO": 999, "REV_AT_EPOCH": 2686, "BSTAR": 7.0738e-05, "MEAN_MOTION_DOT": 1.419e-05, "MEAN_MOTION_DDOT": 0}, "tle": {"line1": "1 31698U 07026A   25359.56296734  .00001419  00000+0  70738-4 0  9991", "line2": "2 31698  97.4447   4.7560 0001851  79.9289 280.2154 15.19155603 26865"}}, "geometry": {"type": "Point", "coordinates": [21.607319927807726, -65.24487202998672]}}, {"type": "Feature", "properties": {"norad_id": 32060, "name": "WORLDVIEW-1 (WV-1)", "group": "resource", "lat": -2.219761789157356, "lon": -63.055118873794584, "alt_km": 499.3868962819997, "timestamp": "2025-12-25T22:42:16.652981+00:00", "meta": {"OBJECT_NAME": "WORLDVIEW-1 (WV-1)", "OBJECT_ID": "2007-041A", "EPOCH": "2025-12-25T07:43:31.060992", "MEAN_MOTION": 15.23960036, "ECCENTRICITY": 0.0003142, "INCLINATION": 97.3822, "RA_OF_ASC_NODE": 116.6184, "ARG_OF_PERICENTER": 354.2284, "MEAN_ANOMALY": 5.8916, "EPHEMERIS_TYPE": 0, "CLASSIFICATION_TYPE": "U", "NORAD_CAT_ID": 32060, "ELEMENT_SET_NO": 999, "REV_AT_EPOCH": 1639, "BSTAR": 0.00035011, "MEAN_MOTION_DOT": 8.403e-05, "MEAN_MOTION_DDOT": 0}, "tle": {"line1": "1 32060U 07041A   25359.32188728  .00008403  00000+0  35011-3 0  9993", "line2": "2 32060  97.3822 116.6184 0003142 354.2284   5.8916 15.23960036 16392"}}, "geometry": {"type": "Point", "coordinates": [-63.055118873794584, -2.219761789157356]}}]}